STARLINK-33666          
1 63592U 25076Z   25244.49503249  .00030252  00000+0  11043-2 0  9990
2 63592  43.0020 310.3238 0001142 270.7861  89.2859 15.27582552 22899
STARLINK-33723          
1 63593U 25076AA  25244.47061885  .00042413  00000+0  15413-2 0  9991
2 63593  43.0001 310.1385 0000288 211.0257 149.0577 15.27593156 22891
STARLINK-33791          
1 63594U 25076AB  25244.23605450  .00022043  00000+0  80806-3 0  9994
2 63594  43.0041 311.8191 0001261 272.8547  87.2160 15.27584547 22859
STARLINK-33831          
1 63595U 25076AC  25244.47446487  .00022973  00000+0  84171-3 0  9995
2 63595  43.0025 310.1083 0000739 278.8282  81.2486 15.27581100 22896
STARLINK-33879          
1 63634U 25083A   25244.59729218  .00047727  00000+0  17309-2 0  9998
2 63634  43.0021 353.4463 0001579 274.5037  85.5634 15.27614768 21148
STARLINK-33854          
1 63635U 25083B   25244.35873863  .00047001  00000+0  17061-2 0  9999
2 63635  43.0025 354.2415 0001286 272.0479  88.0225 15.27589978 21112
STARLINK-33864          
1 63636U 25083C   25244.60115259  .00046206  00000+0  16777-2 0  9995
2 63636  43.0043 353.4789 0000424 292.5487  67.5320 15.27589394 21173
STARLINK-33832          
1 63637U 25083D   25244.61256705  .00035698  00000+0  13002-2 0  9990
2 63637  43.0002 352.7039 0000885 232.1972 127.8800 15.27587649 21151
STARLINK-33856          
1 63638U 25083E   25244.36131301  .00031946  00000+0  11649-2 0  9994
2 63638  43.0014 354.2526 0000524 285.2141  74.8653 15.27593342 21110
STARLINK-33876          
1 63639U 25083F   25244.57288320  .00033447  00000+0  12193-2 0  9995
2 63639  43.0015 353.2568 0001618 284.4391  75.6281 15.27584764 21147
STARLINK-33859          
1 63640U 25083G   25244.59985388  .00057926  00000+0  20941-2 0  9995
2 63640  43.0045 353.4713 0001644 281.6686  78.3982 15.27642266 21141
STARLINK-33826          
1 63641U 25083H   25244.36387503  .00019535  00000+0  71794-3 0  9993
2 63641  43.0043 354.2781 0001335 281.7811  78.2891 15.27561681 21118
STARLINK-33836          
1 63642U 25083J   25244.59086873  .00032270  00000+0  11766-2 0  9998
2 63642  43.0000 353.3979 0000792 215.5455 144.5344 15.27594103 21144
STARLINK-33558          
1 63643U 25083K   25244.35487973  .00041206  00000+0  14971-2 0  9999
2 63643  43.0027 354.2079 0002621 295.0833  64.9746 15.27611532 21115
STARLINK-33852          
1 63644U 25083L   25244.58958372  .00035109  00000+0  12788-2 0  9990
2 63644  43.0015 353.3871 0001119 234.2661 125.8086 15.27591823 21178
STARLINK-33835          
1 63645U 25083M   25244.57673874  .00034668  00000+0  12632-2 0  9998
2 63645  43.0045 353.2897 0001401 292.6032  67.4671 15.27586803 21176
