[{"OBJECT_NAME":"STARLINK-33666","OBJECT_ID":"2025-076Z","EPOCH":"2025-09-01T11:52:50.807136","MEAN_MOTION":15.27582552,"ECCENTRICITY":0.00011423,"INCLINATION":43.002,"RA_OF_ASC_NODE":310.3238,"ARG_OF_PERICENTER":270.7861,"MEAN_ANOMALY":89.2859,"EPHEMERIS_TYPE":0,"CLASSIFICATION_TYPE":"U","NORAD_CAT_ID":63592,"ELEMENT_SET_NO":999,"REV_AT_EPOCH":2289,"BSTAR":0.0011042593,"MEAN_MOTION_DOT":0.00030252,"MEAN_MOTION_DDOT":0},{"OBJECT_NAME":"STARLINK-33723","OBJECT_ID":"2025-076AA","EPOCH":"2025-09-01T11:17:41.468640","MEAN_MOTION":15.27593156,"ECCENTRICITY":2.881e-5,"INCLINATION":43.0001,"RA_OF_ASC_NODE":310.1385,"ARG_OF_PERICENTER":211.0257,"MEAN_ANOMALY":149.0577,"EPHEMERIS_TYPE":0,"CLASSIFICATION_TYPE":"U","NORAD_CAT_ID":63593,"ELEMENT_SET_NO":999,"REV_AT_EPOCH":2289,"BSTAR":0.001541338,"MEAN_MOTION_DOT":0.00042413,"MEAN_MOTION_DDOT":0},{"OBJECT_NAME":"STARLINK-33791","OBJECT_ID":"2025-076AB","EPOCH":"2025-09-01T05:39:55.108800","MEAN_MOTION":15.27584547,"ECCENTRICITY":0.00012617,"INCLINATION":43.0041,"RA_OF_ASC_NODE":311.8191,"ARG_OF_PERICENTER":272.8547,"MEAN_ANOMALY":87.216,"EPHEMERIS_TYPE":0,"CLASSIFICATION_TYPE":"U","NORAD_CAT_ID":63594,"ELEMENT_SET_NO":999,"REV_AT_EPOCH":2285,"BSTAR":0.0008080645,"MEAN_MOTION_DOT":0.00022043,"MEAN_MOTION_DDOT":0},{"OBJECT_NAME":"STARLINK-33831","OBJECT_ID":"2025-076AC","EPOCH":"2025-09-01T11:23:13.764768","MEAN_MOTION":15.275811,"ECCENTRICITY":7.39e-5,"INCLINATION":43.0025,"RA_OF_ASC_NODE":310.1083,"ARG_OF_PERICENTER":278.8282,"MEAN_ANOMALY":81.2486,"EPHEMERIS_TYPE":0,"CLASSIFICATION_TYPE":"U","NORAD_CAT_ID":63595,"ELEMENT_SET_NO":999,"REV_AT_EPOCH":2289,"BSTAR":0.00084171203,"MEAN_MOTION_DOT":0.00022973,"MEAN_MOTION_DDOT":0},{"OBJECT_NAME":"STARLINK-33879","OBJECT_ID":"2025-083A","EPOCH":"2025-09-01T14:20:06.044352","MEAN_MOTION":15.27614768,"ECCENTRICITY":0.00015797,"INCLINATION":43.0021,"RA_OF_ASC_NODE":353.4463,"ARG_OF_PERICENTER":274.5037,"MEAN_ANOMALY":85.5634,"EPHEMERIS_TYPE":0,"CLASSIFICATION_TYPE":"U","NORAD_CAT_ID":63634,"ELEMENT_SET_NO":999,"REV_AT_EPOCH":2114,"BSTAR":0.0017308502,"MEAN_MOTION_DOT":0.00047727,"MEAN_MOTION_DDOT":0},{"OBJECT_NAME":"STARLINK-33854","OBJECT_ID":"2025-083B","EPOCH":"2025-09-01T08:36:35.017632","MEAN_MOTION":15.27589978,"ECCENTRICITY":0.00012865,"INCLINATION":43.0025,"RA_OF_ASC_NODE":354.2415,"ARG_OF_PERICENTER":272.0479,"MEAN_ANOMALY":88.0225,"EPHEMERIS_TYPE":0,"CLASSIFICATION_TYPE":"U","NORAD_CAT_ID":63635,"ELEMENT_SET_NO":999,"REV_AT_EPOCH":2111,"BSTAR":0.0017061312,"MEAN_MOTION_DOT":0.00047001,"MEAN_MOTION_DDOT":0},{"OBJECT_NAME":"STARLINK-33864","OBJECT_ID":"2025-083C","EPOCH":"2025-09-01T14:25:39.583776","MEAN_MOTION":15.27589394,"ECCENTRICITY":4.242e-5,"INCLINATION":43.0043,"RA_OF_ASC_NODE":353.4789,"ARG_OF_PERICENTER":292.5487,"MEAN_ANOMALY":67.532,"EPHEMERIS_TYPE":0,"CLASSIFICATION_TYPE":"U","NORAD_CAT_ID":63636,"ELEMENT_SET_NO":999,"REV_AT_EPOCH":2117,"BSTAR":0.0016776681,"MEAN_MOTION_DOT":0.00046206,"MEAN_MOTION_DDOT":0},{"OBJECT_NAME":"STARLINK-33832","OBJECT_ID":"2025-083D","EPOCH":"2025-09-01T14:42:05.793120","MEAN_MOTION":15.27587649,"ECCENTRICITY":8.858e-5,"INCLINATION":43.0002,"RA_OF_ASC_NODE":352.7039,"ARG_OF_PERICENTER":232.1972,"MEAN_ANOMALY":127.88,"EPHEMERIS_TYPE":0,"CLASSIFICATION_TYPE":"U","NORAD_CAT_ID":63637,"ELEMENT_SET_NO":999,"REV_AT_EPOCH":2115,"BSTAR":0.0013001909,"MEAN_MOTION_DOT":0.00035698,"MEAN_MOTION_DDOT":0},{"OBJECT_NAME":"STARLINK-33856","OBJECT_ID":"2025-083E","EPOCH":"2025-09-01T08:40:17.444064","MEAN_MOTION":15.27593342,"ECCENTRICITY":5.246e-5,"INCLINATION":43.0014,"RA_OF_ASC_NODE":354.2526,"ARG_OF_PERICENTER":285.2141,"MEAN_ANOMALY":74.8653,"EPHEMERIS_TYPE":0,"CLASSIFICATION_TYPE":"U","NORAD_CAT_ID":63638,"ELEMENT_SET_NO":999,"REV_AT_EPOCH":2111,"BSTAR":0.001164912,"MEAN_MOTION_DOT":0.00031946,"MEAN_MOTION_DDOT":0},{"OBJECT_NAME":"STARLINK-33876","OBJECT_ID":"2025-083F","EPOCH":"2025-09-01T13:44:57.108480","MEAN_MOTION":15.27584764,"ECCENTRICITY":0.00016189,"INCLINATION":43.0015,"RA_OF_ASC_NODE":353.2568,"ARG_OF_PERICENTER":284.4391,"MEAN_ANOMALY":75.6281,"EPHEMERIS_TYPE":0,"CLASSIFICATION_TYPE":"U","NORAD_CAT_ID":63639,"ELEMENT_SET_NO":999,"REV_AT_EPOCH":2114,"BSTAR":0.0012192598,"MEAN_MOTION_DOT":0.00033447,"MEAN_MOTION_DDOT":0},{"OBJECT_NAME":"STARLINK-33859","OBJECT_ID":"2025-083G","EPOCH":"2025-09-01T14:23:47.375232","MEAN_MOTION":15.27642266,"ECCENTRICITY":0.0001644,"INCLINATION":43.0045,"RA_OF_ASC_NODE":353.4713,"ARG_OF_PERICENTER":281.6686,"MEAN_ANOMALY":78.3982,"EPHEMERIS_TYPE":0,"CLASSIFICATION_TYPE":"U","NORAD_CAT_ID":63640,"ELEMENT_SET_NO":999,"REV_AT_EPOCH":2114,"BSTAR":0.0020940645,"MEAN_MOTION_DOT":0.00057926,"MEAN_MOTION_DDOT":0},{"OBJECT_NAME":"STARLINK-33826","OBJECT_ID":"2025-083H","EPOCH":"2025-09-01T08:43:58.802592","MEAN_MOTION":15.27561681,"ECCENTRICITY":0.00013357,"INCLINATION":43.0043,"RA_OF_ASC_NODE":354.2781,"ARG_OF_PERICENTER":281.7811,"MEAN_ANOMALY":78.2891,"EPHEMERIS_TYPE":0,"CLASSIFICATION_TYPE":"U","NORAD_CAT_ID":63641,"ELEMENT_SET_NO":999,"REV_AT_EPOCH":2111,"BSTAR":0.00071793834,"MEAN_MOTION_DOT":0.00019535,"MEAN_MOTION_DDOT":0},{"OBJECT_NAME":"STARLINK-33836","OBJECT_ID":"2025-083J","EPOCH":"2025-09-01T14:10:51.058272","MEAN_MOTION":15.27594103,"ECCENTRICITY":7.925e-5,"INCLINATION":43,"RA_OF_ASC_NODE":353.3979,"ARG_OF_PERICENTER":215.5455,"MEAN_ANOMALY":144.5344,"EPHEMERIS_TYPE":0,"CLASSIFICATION_TYPE":"U","NORAD_CAT_ID":63642,"ELEMENT_SET_NO":999,"REV_AT_EPOCH":2114,"BSTAR":0.0011765708,"MEAN_MOTION_DOT":0.0003227,"MEAN_MOTION_DDOT":0},{"OBJECT_NAME":"STARLINK-33558","OBJECT_ID":"2025-083K","EPOCH":"2025-09-01T08:31:01.608672","MEAN_MOTION":15.27611532,"ECCENTRICITY":0.00026213,"INCLINATION":43.0027,"RA_OF_ASC_NODE":354.2079,"ARG_OF_PERICENTER":295.0833,"MEAN_ANOMALY":64.9746,"EPHEMERIS_TYPE":0,"CLASSIFICATION_TYPE":"U","NORAD_CAT_ID":63643,"ELEMENT_SET_NO":999,"REV_AT_EPOCH":2111,"BSTAR":0.001497069,"MEAN_MOTION_DOT":0.00041206,"MEAN_MOTION_DDOT":0},{"OBJECT_NAME":"STARLINK-33852","OBJECT_ID":"2025-083L","EPOCH":"2025-09-01T14:09:00.033408","MEAN_MOTION":15.27591823,"ECCENTRICITY":0.0001119,"INCLINATION":43.0015,"RA_OF_ASC_NODE":353.3871,"ARG_OF_PERICENTER":234.2661,"MEAN_ANOMALY":125.8086,"EPHEMERIS_TYPE":0,"CLASSIFICATION_TYPE":"U","NORAD_CAT_ID":63644,"ELEMENT_SET_NO":999,"REV_AT_EPOCH":2117,"BSTAR":0.0012788422,"MEAN_MOTION_DOT":0.00035109,"MEAN_MOTION_DDOT":0},{"OBJECT_NAME":"STARLINK-33835","OBJECT_ID":"2025-083M","EPOCH":"2025-09-01T13:50:30.227136","MEAN_MOTION":15.27586803,"ECCENTRICITY":0.00014012,"INCLINATION":43.0045,"RA_OF_ASC_NODE":353.2897,"ARG_OF_PERICENTER":292.6032,"MEAN_ANOMALY":67.4671,"EPHEMERIS_TYPE":0,"CLASSIFICATION_TYPE":"U","NORAD_CAT_ID":63645,"ELEMENT_SET_NO":999,"REV_AT_EPOCH":2117,"BSTAR":0.0012631625,"MEAN_MOTION_DOT":0.00034668,"MEAN_MOTION_DDOT":0}]
